#dP2022  6 26  0  0  0.00000000      96 __u+U ITR00 EXT  IAC
## 2216      0.00000000   900.00000000 59756 0.0000000000000
+  115   C06C07C08C09C10C11C12C13C14C16C19C20C21C22C23C24C25
+        C26C27C28C29C30C32C33C34C35C36C37C38C39C40C41C42C43
+        C44C45C46E01E02E03E04E05E07E08E09E10E11E12E13E14E15
+        E18E19E21E24E25E26E27E30E31E33E34E36G01G02G03G04G05
+        G06G07G08G10G11G12G13G14G15G16G17G18G19G20G21G22G23
+        G24G25G26G27G28G29G30G31G32J02J03R01R02R03R04R05R07
+        R08R09R11R12R13R14R15R17R18R19R20R21R24  0  0  0  0
++         9 13 10 10 12  8  8 10  8 11  9  9  9  8  8  8  8
++         8  7  8  8  8  9  7 10  9  9  7 10 11  8  7  8  8
++         7  9  8  8  7  8  8  8  8  8  7 10  8  7  8  7  8
++         8  7  8  8  8  8  7  7  7  7  7  8  6  7  6  7  9
++         7  7  7  7  7  8  8  8  9  9  8  6  7  9  7  8  8
++         8  7  7  7  8  8  8  6  7  9  8  8  7  8  8  9  8
++         8  8  8  8  7  8  8  9  8  9  8  8  7  0  0  0  0
%c M  cc GPS ccc cccc cccc cccc cccc ccccc ccccc ccccc ccccc
%c cc cc ccc ccc cccc cccc cccc cccc ccccc ccccc ccccc ccccc
%f  0.0000000  0.000000000  0.00000000000  0.000000000000000
%f  0.0000000  0.000000000  0.00000000000  0.000000000000000
%i    0    0    0    0      0      0      0      0         0
%i    0    0    0    0      0      0      0      0         0
/* IAC                                ULTRA-RAPID PREDICTION
/* S/V CLOCKS ARE ALIGNED TO GNSS TIME                      
/* G:C1WC2W R:C1PC2P E:C1XC5X C:C2IC6I J:C1CC2S             
/* PCV:IGS14_2196 OL/AL:FES2004  NONE     YN ORB:CoN CLK:CoN
*  2022 06 26 13 45  0.00000000
PC06    209.777287  33312.325454  25994.218407    269.080046
PC07 -13199.648781  27445.359493 -29222.815842   -349.821920
PC08 -13837.175728  39419.342205   5141.289378    379.350162
PC09   4991.510170  36516.140636  21299.089268   -920.120048
PC10  -6355.170126  27598.600533 -31058.922200    123.449580
PC11  10417.589384  23967.758920  -9681.301808    438.057896
PC12  -5038.632921  16742.030617 -21716.827279   -590.574667
PC13  -9271.309916  39762.025569  10061.174803      6.910991
PC14   4832.437053  15205.867118  22912.161085    517.014591
PC16  -2128.711196  31401.840424  28368.415275    141.311202
PC19 -15454.945600 -11456.702495 -20197.959897    -82.492511
PC20   4352.108026 -16202.652366 -22279.181773   -965.051907
PC21 -22934.857110  11471.260565  11059.658631   -560.152037
PC22 -27191.135886     60.712642  -6352.668209   -963.398695
PC23  16894.385762    518.443470 -22193.910180   -937.805997
PC24  -7254.178692  26663.216484  -3823.819746   -969.044332
PC25   8048.970955  18557.375236 -19220.666902   -716.298619
PC26 -15990.388158  19493.991644  11916.568226    718.013911
PC27  12613.390343  -9645.988364  22923.082114    744.952729
PC28  21040.199263   8220.497836  16379.923297     83.036966
PC29 -17998.335158 -21323.013450    392.246362    573.597238
PC30  -3365.975688 -21928.580268  16904.760989    500.374272
PC32  22866.617944 -11604.193675 -10973.710037   -971.819611
PC33  15387.752550  11467.664042  20257.498122    -24.292852
PC34   4260.696743  22347.196654 -16190.623420   -372.224283
PC35 -21548.179078  -8470.262841 -15569.161480    338.384210
PC36  -7249.148700 -19180.333407  18958.222019   -970.486045
PC37  16787.927034 -18208.044506 -12857.523305   -911.434364
PC38 -17494.408102  38177.983114  -2833.176105      5.882663
PC39  -5647.095923  27727.447140  31353.214351     34.984485
PC40 -20460.438426  21158.438328 -30286.116075    280.581023
PC41  27051.528378    241.001701   6887.069948    -32.416971
PC42  -5604.699521  16306.899802  21990.660569   -957.356328
PC43  17532.816659  21696.723699  -1120.092522   -915.950132
PC44 -12502.484807  10044.321674 -22852.538414    704.768978
PC45 -16875.492330   -137.415959  22229.912965    793.465544
PC46   6166.698515 -26706.551424   5343.979669   -399.753991
PE01  21449.735245 -20169.818608   3048.776865   -503.612444
PE02 -21354.182970  20236.314772  -3212.399119    308.138069
PE03 -15359.227867  11313.307372  22640.753534   -572.813734
PE04  -5680.511062 -18791.812148 -22143.330756  -1058.413153
PE05 -27770.388462  -2970.559431   9822.211611   -168.558614
PE07  23840.602378  15323.217393   8531.854065   -682.030675
PE08   5990.334230  18677.641151  22169.556143   -553.276032
PE09 -23958.847767 -15173.538065  -8503.806576   -566.827217
PE10  -9139.844725 -27378.963357  -6585.003475   -522.281331
PE11 -13978.890609 -20772.813237 -15794.171906   3218.580184
PE12  -2978.794563 -29275.622065   3105.232565    -31.010473
PE13  13703.246751  21361.835215  15234.483788    429.500828
PE14 -28932.475157  -4146.164905 -13164.743701  -1796.573086
PE15   2951.864445  29271.960272  -3285.356972    737.003079
PE18  22074.387856   7235.743184   6243.011455  -1284.352458
PE19  17598.184977  -9595.068561 -21769.263906  -5263.178681
PE21  24809.095862  -8027.063111 -14005.471481   -742.430689
PE24 -13252.635793 -10587.165661  24247.045730   -691.940267
PE25 -24760.799672   7781.071677  14240.203535   -578.958229
PE26  16365.154330   -107.088911  24659.635290  -1307.444242
PE27  14235.406402   9557.594935 -24123.435966   -330.995535
PE30  -5589.628812  21647.848632 -19399.864971   -623.827239
PE31   4612.271537 -21366.068302  19968.659761   -498.912362
PE33   9484.724475 -19875.916963  19769.548470   -455.262533
PE34  -9358.911469  20053.016038 -19667.907845   -524.083622
PE36 -16330.280157   -962.789860 -24673.613455   -393.620693
PG01  13151.649098  -9668.689576  20562.494476    333.401875
PG02 -13952.032107 -13574.028576 -17348.875308   -652.268354
PG03  23156.674241 -12366.731419   3478.365075   -290.261026
PG04  20252.022633  -2484.778215 -17039.658691   -152.829235
PG05 -21269.620894   1438.609834 -16106.347730    -86.936742
PG06  -6153.205459 -24701.512070  -7378.819376    359.627178
PG07   6143.875347 -23253.661452 -10283.426804    321.046238
PG08  24261.799797   3324.800923  10675.343100    -73.734882
PG10  -2802.948770  17772.875786  19581.353301   -469.701506
PG11 -12483.504555 -15162.769159 -17894.388199    -12.807197
PG12 -24202.845668   8622.199459   6244.968031   -237.104856
PG13 -22978.162137 -13084.719933   3221.310762    337.091971
PG14   4843.842060 -18337.330948  18554.607929   -111.942434
PG15 -24570.559682   -688.881120  10029.452948    -50.186784
PG16  18331.437066   4998.292802 -19016.290540   -511.604425
PG17  -5603.520168 -18094.978460  19026.845956    629.714156
PG18  -6573.970991  23255.626106 -10894.536911    131.055307
PG19 -13952.440536 -18908.744961  12340.203379    175.798745
PG20 -13655.227115  -8308.794957 -21180.115781    508.205157
PG21  15751.340889   1324.214512  22036.093704    161.280001
PG22  15834.437415  18657.015037  10961.623434    282.239007
PG23 -13169.883700  19449.942429  12281.289295    -30.046355
PG24 -14893.988818   5481.086987  20955.986286    211.850614
PG25 -18683.856773  17713.640372  -6201.722646    342.038057
PG26   9864.451399  12301.876915 -21464.421489    214.709001
PG27  23362.054003  12998.832417  -1685.931663    218.289366
PG28  -4081.529359 -15010.020252  22059.730884    330.405232
PG29 -11460.576898  10132.491404 -21773.401524   -527.806058
PG30   -363.325115 -26397.353362   -974.373087   -532.480831
PG31   7789.505523  23182.292694  -9895.746307   -183.352464
PG32   9268.759195  18131.810336  17299.071803   -160.855148
PJ02 -35607.971891  22623.752039   2864.239255     -1.026348
PJ03 -18357.073739  24799.998853 -24161.865003     -3.100420
PR01  -9498.753490  10259.755986  21342.561757     10.526652
PR02  11786.235892   9937.524435  20386.412799    522.380650
PR03  24273.264956   3840.420976   6983.040614     59.141048
PR04  23049.317255  -4102.974429 -10105.914853    148.322680
PR05   9243.218467  -9831.855437 -21636.764701     95.275905
PR07 -24483.037333  -3466.930715  -6128.615116     36.980034
PR08 -22916.958757   4368.360175  10346.163536    -65.895205
PR09  -1345.788256 -16682.514129  19239.695194     62.556316
PR11 -15964.074815  14550.355748  13595.559985     35.079418
PR12 -10939.948796  22566.358272  -4596.911569     19.054431
PR13     61.081302  17526.367545 -18545.310447    -23.983702
PR14  11995.593132   1106.605918 -22465.992396     25.098754
PR15  16169.478498 -15021.170079 -12760.935525     95.093404
PR17  15246.040445  13517.554530  15319.896564    538.266010
PR18  10502.474322  -2373.630944  23133.885923    121.573694
PR19   1510.060600 -16377.952946  19491.247572   -194.139178
PR20 -10456.366941 -23152.017697   2065.561370    -73.388632
PR21 -15045.537396 -12396.838253 -16474.733024   -312.560763
PR24  11342.875661  22799.057366  -1334.011065    100.587581
EOF
